AEROCUBE 6B             
1 40046U 14033AN  26068.42625992  .00007941  00000+0  66368-3 0  9998
2 40046  97.7129 236.1645 0037452 343.2300  16.7681 14.98232474631816
STARLINK-35856          
1 67013U 25293L   26068.81596626  .00005002  00000+0  42668-3 0  9998
2 67013  70.0021  94.2635 0002855 271.6812  88.4020 14.98330046 14909
